[{"OBJECT_NAME":"SITRO-AIS 6 (CHIRKIN)","OBJECT_ID":"2023-091AC","EPOCH":"2026-03-09T23:26:09.745152","MEAN_MOTION":15.244139,"ECCENTRICITY":0.00142211,"INCLINATION":97.5181,"RA_OF_ASC_NODE":131.6463,"ARG_OF_PERICENTER":95.0602,"MEAN_ANOMALY":265.2259,"EPHEMERIS_TYPE":0,"CLASSIFICATION_TYPE":"U","NORAD_CAT_ID":57192,"ELEMENT_SET_NO":999,"REV_AT_EPOCH":14916,"BSTAR":0.00035317072,"MEAN_MOTION_DOT":8.613e-5,"MEAN_MOTION_DDOT":0},{"OBJECT_NAME":"STARLINK-30276","OBJECT_ID":"2023-122W","EPOCH":"2026-03-09T22:00:01.999584","MEAN_MOTION":15.26724427,"ECCENTRICITY":0.00014643,"INCLINATION":43.0012,"RA_OF_ASC_NODE":91.0185,"ARG_OF_PERICENTER":257.0044,"MEAN_ANOMALY":113.2017,"EPHEMERIS_TYPE":0,"CLASSIFICATION_TYPE":"U","NORAD_CAT_ID":57652,"ELEMENT_SET_NO":999,"REV_AT_EPOCH":578,"BSTAR":0.0013865429,"MEAN_MOTION_DOT":0.00037102,"MEAN_MOTION_DDOT":0}]
